NORAD_CAT_ID,OBJECT_NAME,OBJECT_TYPE,EPOCH,MEAN_MOTION,ECCENTRICITY,INCLINATION,RA_OF_ASC_NODE,ARG_OF_PERICENTER,MEAN_ANOMALY,BSTAR,MEAN_MOTION_DOT,MEAN_MOTION_DDOT,TLE_LINE0,TLE_LINE1,TLE_LINE2,SEMIMAJOR_AXIS,PERIOD,APOGEE,PERIGEE,DECAYED
55677.0,STARLINK-5324,PAYLOAD,2024-04-11 09:57:15,14.98332117,0.0003029,69.9981,102.4927,270.2064,89.8748,-6.7519e-06,-1.74e-06,0.0,0 STARLINK-5324,1 55677U 23021BB  24102.41475995 -.00000174  00000-0 -67519-5 0  9998,2 55677  69.9981 102.4927 0003029 270.2064  89.8748 14.98332117 65031,6950.186,96.107,574.157,569.946,0.0
55677.0,STARLINK-5324,PAYLOAD,2024-04-12 09:59:16,14.98330733,0.0003028,69.9982,99.9677,270.2267,89.8545,1.2061e-06,-7.9e-07,0.0,0 STARLINK-5324,1 55677U 23021BB  24103.41615940 -.00000079  00000-0  12061-5 0  9990,2 55677  69.9982  99.9677 0003028 270.2267  89.8545 14.98330733 65181,6950.191,96.107,574.16,569.951,0.0
55677.0,STARLINK-5324,PAYLOAD,2024-04-13 10:01:16,14.98333338,0.0002986,69.9984,97.4436,268.2336,91.8481,2.8312e-05,2.45e-06,0.0,0 STARLINK-5324,1 55677U 23021BB  24104.41755543  .00000245  00000-0  28312-4 0  9994,2 55677  69.9984  97.4436 0002986 268.2336  91.8481 14.98333338 65338,6950.183,96.107,574.123,569.972,0.0
55677.0,STARLINK-5324,PAYLOAD,2024-04-14 03:38:45,14.98327109,0.0002872,69.9988,95.592,266.2447,93.8384,-1.2903e-05,-2.47e-06,0.0,0 STARLINK-5324,1 55677U 23021BB  24105.15192029 -.00000247  00000-0 -12903-4 0  9993,2 55677  69.9988  95.5920 0002872 266.2447  93.8384 14.98327109 65449,6950.202,96.107,574.063,570.071,0.0
55677.0,STARLINK-5324,PAYLOAD,2024-04-14 22:52:22,14.98328667,0.0002568,69.9993,93.5711,261.3881,98.6987,2.7124e-05,2.31e-06,0.0,0 STARLINK-5324,1 55677U 23021BB  24105.95303863  .00000231  00000-0  27124-4 0  9993,2 55677  69.9993  93.5711 0002568 261.3881  98.6987 14.98328667 65869,6950.197,96.107,573.847,570.277,0.0
55677.0,STARLINK-5324,PAYLOAD,2024-04-15 03:40:46,14.98329772,0.0002583,69.9991,93.0669,251.8758,108.212,-1.0431e-05,-2.17e-06,0.0,0 STARLINK-5324,1 55677U 23021BB  24106.15331896 -.00000217  00000-0 -10431-4 0  9992,2 55677  69.9991  93.0669 0002583 251.8758 108.2120 14.98329772 65593,6950.194,96.107,573.854,570.263,0.0
55677.0,STARLINK-5324,PAYLOAD,2024-04-15 08:29:11,14.98328534,0.0002267,70.0003,92.5617,278.3935,81.6967,5.2378e-05,5.32e-06,0.0,0 STARLINK-5324,1 55677U 23021BB  24106.35360098  .00000532  00000-0  52378-4 0  9994,2 55677  70.0003  92.5617 0002267 278.3935  81.6967 14.98328534 65922,6950.197,96.107,573.638,570.487,0.0
55677.0,STARLINK-5324,PAYLOAD,2024-04-16 05:18:56,14.98323241,0.0002797,69.999,90.3729,264.3912,95.6928,-6.3067e-06,-1.68e-06,0.0,0 STARLINK-5324,1 55677U 23021BB  24107.22148392 -.00000168  00000-0 -63067-5 0  9997,2 55677  69.9990  90.3729 0002797 264.3912  95.6928 14.98323241 65755,6950.214,96.107,574.023,570.135,0.0
55677.0,STARLINK-5324,PAYLOAD,2024-04-16 08:31:11,14.98329357,0.0002919,69.9988,90.0361,267.8137,92.2688,5.4608e-05,5.59e-06,0.0,0 STARLINK-5324,1 55677U 23021BB  24107.35499830  .00000559  00000-0  54608-4 0  9999,2 55677  69.9988  90.0361 0002919 267.8137  92.2688 14.98329357 65776,6950.195,96.107,574.089,570.031,0.0
55677.0,STARLINK-5324,PAYLOAD,2024-04-16 16:31:52,14.98332419,0.0002935,69.9988,89.1941,268.9438,91.1384,5.1466e-05,5.21e-06,0.0,0 STARLINK-5324,1 55677U 23021BB  24107.68879641  .00000521  00000-0  51466-4 0  9995,2 55677  69.9988  89.1941 0002935 268.9438  91.1384 14.98332419 66127,6950.185,96.107,574.09,570.011,0.0
55677.0,STARLINK-5324,PAYLOAD,2024-04-17 08:33:11,14.9833933,0.000296,69.9988,87.5105,269.1216,90.9604,0.00012596,1.411e-05,0.0,0 STARLINK-5324,1 55677U 23021BB  24108.35638794  .00001411  00000-0  12596-3 0  9991,2 55677  69.9988  87.5105 0002960 269.1216  90.9604 14.98339330 65924,6950.164,96.106,574.086,569.972,0.0
55677.0,STARLINK-5324,PAYLOAD,2024-04-18 03:46:51,14.98307433,0.0003186,69.9988,85.4904,283.5764,76.504,-0.00022769,-2.807e-05,0.0,0 STARLINK-5324,1 55677U 23021BB  24109.15753915 -.00002807  00000-0 -22769-3 0  9998,2 55677  69.9988  85.4904 0003186 283.5764  76.5040 14.98307433 66044,6950.263,96.108,574.342,569.913,0.0
55677.0,STARLINK-5324,PAYLOAD,2024-04-18 08:35:19,14.98262509,0.0002675,69.9991,84.9858,280.2061,79.8796,-0.0007144,-8.592e-05,0.0,0 STARLINK-5324,1 55677U 23021BB  24109.35786616 -.00008592  00000-0 -71440-3 0  9991,2 55677  69.9991  84.9858 0002675 280.2061  79.8796 14.98262509 66077,6950.402,96.111,574.126,570.407,0.0
55677.0,STARLINK-5324,PAYLOAD,2024-04-18 23:00:29,14.98309497,0.0002759,69.9993,83.4711,274.0088,86.0756,-0.00022242,-2.744e-05,0.0,0 STARLINK-5324,1 55677U 23021BB  24109.95867379 -.00002744  00000-0 -22242-3 0  9992,2 55677  69.9993  83.4711 0002759 274.0088  86.0756 14.98309497 66461,6950.256,96.108,574.039,570.204,0.0
55677.0,STARLINK-5324,PAYLOAD,2024-04-19 03:48:52,14.98324076,0.0002568,69.9998,82.9667,266.8028,93.2837,-5.7047e-05,-7.73e-06,0.0,0 STARLINK-5324,1 55677U 23021BB  24110.15894267 -.00000773  00000-0 -57047-4 0  9994,2 55677  69.9998  82.9667 0002568 266.8028  93.2837 14.98324076 66191,6950.211,96.107,573.861,570.291,0.0
55677.0,STARLINK-5324,PAYLOAD,2024-04-19 08:37:16,14.98330326,0.0002808,69.9993,82.4623,265.5057,94.5781,1.9233e-05,1.37e-06,0.0,0 STARLINK-5324,1 55677U 23021BB  24110.35921712  .00000137  00000-0  19233-4 0  9999,2 55677  69.9993  82.4623 0002808 265.5057  94.5781 14.98330326 66229,6950.192,96.107,574.008,570.105,0.0
55677.0,STARLINK-5324,PAYLOAD,2024-04-20 03:50:51,14.98340483,0.0002153,70.001,80.4423,239.879,120.2156,0.00050622,5.954e-05,0.0,0 STARLINK-5324,1 55677U 23021BB  24111.16031423  .00005954  00000-0  50622-3 0  9998,2 55677  70.0010  80.4423 0002153 239.8790 120.2156 14.98340483 66340,6950.16,96.106,573.522,570.529,0.0
55677.0,STARLINK-5324,PAYLOAD,2024-04-20 08:39:14,14.98353872,0.0002467,70.0001,79.938,240.6921,119.3992,0.0005514,6.496e-05,0.0,0 STARLINK-5324,1 55677U 23021BB  24111.36058210  .00006496  00000-0  55140-3 0  9995,2 55677  70.0001  79.9380 0002467 240.6921 119.3992 14.98353872 66375,6950.119,96.105,573.699,570.269,0.0
55677.0,STARLINK-5324,PAYLOAD,2024-04-21 03:52:54,14.98321948,0.0002652,69.9997,77.9175,269.2079,90.8776,-0.00017313,-2.158e-05,0.0,0 STARLINK-5324,1 55677U 23021BB  24112.16174535 -.00002158  00000-0 -17313-3 0  9996,2 55677  69.9997  77.9175 0002652 269.2079  90.8776 14.98321948 66498,6950.218,96.108,573.926,570.24,0.0
55677.0,STARLINK-5324,PAYLOAD,2024-04-21 08:41:17,14.9833876,0.0002487,70.0003,77.412,283.1588,76.9294,3.6785e-05,3.46e-06,0.0,0 STARLINK-5324,1 55677U 23021BB  24112.36201032  .00000346  00000-0  36785-4 0  9991,2 55677  70.0003  77.4120 0002487 283.1588  76.9294 14.98338760 66827,6950.166,96.106,573.759,570.302,0.0
55677.0,STARLINK-5324,PAYLOAD,2024-04-22 03:54:53,14.98355666,0.0002325,70.0008,75.3937,252.3142,107.7764,-0.00021085,-2.609e-05,0.0,0 STARLINK-5324,1 55677U 23021BB  24113.16311519 -.00002609  00000-0 -21085-3 0  9994,2 55677  70.0008  75.3937 0002325 252.3142 107.7764 14.98355666 66649,6950.114,96.105,573.594,570.363,0.0
55677.0,STARLINK-5324,PAYLOAD,2024-04-22 07:07:08,14.98358104,0.0002369,70.0007,75.0573,255.6114,104.4783,-0.00017928,-2.233e-05,0.0,0 STARLINK-5324,1 55677U 23021BB  24113.29663087 -.00002233  00000-0 -17928-3 0  9992,2 55677  70.0007  75.0573 0002369 255.6114 104.4783 14.98358104 66964,6950.106,96.105,573.617,570.325,0.0
55677.0,STARLINK-5324,PAYLOAD,2024-04-22 19:56:14,14.98328986,0.0002015,70.003,73.7114,275.9477,84.1453,9.5627e-05,1.048e-05,0.0,0 STARLINK-5324,1 55677U 23021BB  24113.83071927  .00001048  00000-0  95627-4 0  9992,2 55677  70.0030  73.7114 0002015 275.9477  84.1453 14.98328986 66740,6950.196,96.107,573.461,570.661,0.0
55677.0,STARLINK-5324,PAYLOAD,2024-04-23 03:56:54,14.98319135,0.000228,70.0012,72.869,261.9176,98.1724,0.00013065,1.466e-05,0.0,0 STARLINK-5324,1 55677U 23021BB  24114.16452520  .00001466  00000-0  13065-3 0  9990,2 55677  70.0012  72.8690 0002280 261.9176  98.1724 14.98319135 66791,6950.226,96.108,573.676,570.507,0.0
55677.0,STARLINK-5324,PAYLOAD,2024-04-23 07:09:10,14.98325586,0.0002469,70.0007,72.532,265.0291,95.0586,9.3108e-05,1.018e-05,0.0,0 STARLINK-5324,1 55677U 23021BB  24114.29804249  .00001018  00000-0  93108-4 0  9993,2 55677  70.0007  72.5320 0002469 265.0291  95.0586 14.98325586 67110,6950.207,96.107,573.788,570.356,0.0
55677.0,STARLINK-5324,PAYLOAD,2024-04-23 21:34:23,14.98336687,0.0002548,70.0007,71.0177,259.2284,100.8588,-4.1238e-05,-5.85e-06,0.0,0 STARLINK-5324,1 55677U 23021BB  24114.89887811 -.00000585  00000-0 -41238-4 0  9992,2 55677  70.0007  71.0177 0002548 259.2284 100.8588 14.98336687 67200,6950.172,96.107,573.808,570.266,0.0
55677.0,STARLINK-5324,PAYLOAD,2024-04-24 03:58:55,14.98338175,0.0002529,70.0005,70.344,250.9377,109.1508,-3.0209e-05,-4.53e-06,0.0,0 STARLINK-5324,1 55677U 23021BB  24115.16591536 -.00000453  00000-0 -30209-4 0  9999,2 55677  70.0005  70.3440 0002529 250.9377 109.1508 14.98338175 66941,6950.168,96.106,573.79,570.275,0.0
55677.0,STARLINK-5324,PAYLOAD,2024-04-24 07:11:10,14.98341514,0.0002597,70.0006,70.0076,254.0602,106.0271,1.3008e-05,6.2e-07,0.0,0 STARLINK-5324,1 55677U 23021BB  24115.29943131  .00000062  00000-0  13008-4 0  9997,2 55677  70.0006  70.0076 0002597 254.0602 106.0271 14.98341514 67265,6950.157,96.106,573.827,570.217,0.0
55677.0,STARLINK-5324,PAYLOAD,2024-04-24 21:36:23,14.98329846,0.0002449,70.0018,68.4941,236.8392,123.2532,4.0683e-05,3.93e-06,0.0,0 STARLINK-5324,1 55677U 23021BB  24115.90027654  .00000393  00000-0  40683-4 0  9994,2 55677  70.0018  68.4941 0002449 236.8392 123.2532 14.98329846 67355,6950.193,96.107,573.76,570.356,0.0
55677.0,STARLINK-5324,PAYLOAD,2024-04-25 04:00:56,14.9832908,0.0002669,70.0018,67.8203,253.1064,106.9802,1.8824e-05,1.32e-06,0.0,0 STARLINK-5324,1 55677U 23021BB  24116.16731779  .00000132  00000-0  18824-4 0  9996,2 55677  70.0018  67.8203 0002669 253.1064 106.9802 14.98329080 67090,6950.196,96.107,573.916,570.206,0.0
